SL-8 R/B                
1 19257U 88053B   26083.94285534  .00000315  00000+0  11043-3 0  9997
2 19257  74.0451  84.3472 0021510 261.6255 112.6291 14.38925984978796
COSMOS 1975             
1 19573U 88093A   26083.78517432  .00006355  00000+0  22903-3 0  9996
2 19573  82.5168 102.5263 0013257 114.7744 245.4876 15.28268069 21716
SL-14 R/B               
1 19574U 88093B   26083.95269998  .00000571  00000+0  62879-4 0  9998
2 19574  82.5334  27.7174 0020455 352.2312  77.6785 14.85674132  3289
SL-16 R/B               
1 19650U 88102B   26083.38505451 -.00000238  00000+0 -96129-4 0  9995
2 19650  70.9980 120.5774 0014932 339.1000  20.9511 14.16154852928977
INTERCOSMOS 24          
1 20261U 89080A   26083.97391876  .00000535  00000+0  15857-3 0  9996
2 20261  82.6011  94.4481 1186775 257.3101  89.3035 12.59577863668725
SL-14 R/B               
1 20262U 89080C   26083.91947017  .00000425  00000+0  12011-3 0  9992
2 20262  82.5963 163.4136 1230872 149.9548 217.8395 12.50508621662058
DELTA 1 R/B             
1 20323U 89089B   26083.79545110  .00000306  00000+0  84158-4 0  9993
2 20323  97.0694 288.8302 0070652  75.2061 285.6951 14.50675013897922
ARIANE 40 R/B           
1 20443U 90005H   26083.61508914  .00000263  00000+0  96956-4 0  9999
2 20443  98.3052 143.8296 0010779 154.2700 205.9027 14.39879899894955
DELTA 2 R/B(1)          
1 20453U 90008B   26082.29022841  .00073697  00000+0  82029-3 0  9992
2 20453  35.6034  85.4758 0079944  25.1791 335.2813 15.57716328928258
COSMOS 2058             
1 20465U 90010A   26083.94176195  .00004319  00000+0  25372-3 0  9996
2 20465  82.4683  32.3981 0007472 285.9134  74.1272 15.11453098944544
SL-14 R/B               
1 20466U 90010B   26083.92976849  .00000468  00000+0  53833-4 0  9994
2 20466  82.4991 253.0688 0018428 248.0989 111.8267 14.83582038930749
SL-14 R/B               
1 20511U 90018B   26083.62467469  .00000463  00000+0  55016-4 0  9993
2 20511  82.5230 209.1321 0017223  46.6416 313.6229 14.82159292924791
HST                     
1 20580U 90037B   26083.88381682  .00006792  00000+0  22150-3 0  9993
2 20580  28.4720 296.3339 0001502 302.0996  57.9454 15.29712210775645
SL-16 R/B               
1 20625U 90046B   26083.96663460  .00000179  00000+0  11681-3 0  9999
2 20625  70.9953 265.8270 0016288 279.6356  80.2926 14.15013575850555
COSMOS 2084             
1 20663U 90055A   26083.93044859  .00002305  00000+0  17207-3 0  9996
2 20663  62.7893 283.5930 0014693 194.4805 165.5877 15.05730685938614
SL-6 R/B(2)             
1 20666U 90055D   26083.60146866  .00002110  00000+0  16678-3 0  9999
2 20666  62.7830 203.1371 0027244 350.4966   9.5614 15.03664770940431
SL-8 R/B                
1 20775U 90078B   26083.89376879  .00013022  00000+0  38535-3 0  9995
2 20775  82.9019 237.6291 0359127 322.7617  34.9173 14.89530990811563
